start=new Date('2022-09-19T00:00:00.000Z').valueOf();
sats=[{"EPOCH":"2022-09-19T03:48:40.462560","COUNTRY_CODE":"US","SEMIMAJOR_AXIS":"6925.319","FILE":"3577464","ECCENTRICITY":"0.00017260","RA_OF_ASC_NODE":"51.7883","SITE":"AFETR","OBJECT_ID":"2021-044D","BSTAR":"0.00016668000000","CENTER_NAME":"EARTH","MEAN_MOTION_DDOT":"0.0000000000000","TIME_SYSTEM":"UTC","APOAPSIS":"548.379","PERIOD":"95.592","ELEMENT_SET_NO":"999","OBJECT_NAME":"STARLINK-2754","INCLINATION":"53.0549","GP_ID":"212969234","REV_AT_EPOCH":"7356","REF_FRAME":"TEME","CLASSIFICATION_TYPE":"U","MEAN_MOTION":"15.06409735","EPHEMERIS_TYPE":"0","PERIAPSIS":"545.988","DECAY_DATE":null,"ARG_OF_PERICENTER":"64.6841","MEAN_ELEMENT_THEORY":"SGP4","TLE_LINE1":"1 48641U 21044D   22262.15880165  .00002203  00000-0  16668-3 0  9999","MEAN_MOTION_DOT":"0.00002203","NORAD_CAT_ID":"48641","RCS_SIZE":"LARGE","MEAN_ANOMALY":"295.4327","LAUNCH_DATE":"2021-05-26","TLE_LINE2":"2 48641  53.0549  51.7883 0001726  64.6841 295.4327 15.06409735 73561","OBJECT_TYPE":"PAYLOAD"},{"MEAN_ANOMALY":"275.6689","RCS_SIZE":"LARGE","OBJECT_TYPE":"PAYLOAD","LAUNCH_DATE":"2021-05-26","TLE_LINE2":"2 48642  53.0548  53.2028 0001459  84.4466 275.6689 15.06385821 72610","MEAN_MOTION_DOT":"-0.00001023","NORAD_CAT_ID":"48642","MEAN_ELEMENT_THEORY":"SGP4","TLE_LINE1":"1 48642U 21044E   22261.84087791 -.00001023  00000-0 -49841-4 0  9990","EPHEMERIS_TYPE":"0","ARG_OF_PERICENTER":"84.4466","PERIAPSIS":"546.247","DECAY_DATE":null,"REV_AT_EPOCH":"7261","REF_FRAME":"TEME","INCLINATION":"53.0548","GP_ID":"212964069","MEAN_MOTION":"15.06385821","CLASSIFICATION_TYPE":"U","MEAN_MOTION_DDOT":"0.0000000000000","BSTAR":"-0.00004984100000","CENTER_NAME":"EARTH","OBJECT_NAME":"STARLINK-2646","ELEMENT_SET_NO":"999","APOAPSIS":"548.267","PERIOD":"95.593","TIME_SYSTEM":"UTC","ECCENTRICITY":"0.00014590","OBJECT_ID":"2021-044E","SITE":"AFETR","RA_OF_ASC_NODE":"53.2028","EPOCH":"2022-09-18T20:10:51.851424","SEMIMAJOR_AXIS":"6925.392","FILE":"3577422","COUNTRY_CODE":"US"},{"MEAN_MOTION_DDOT":"0.0000000000000","CENTER_NAME":"EARTH","BSTAR":"0.00009111700000","OBJECT_NAME":"STARLINK-2704","APOAPSIS":"548.153","ELEMENT_SET_NO":"999","PERIOD":"95.592","TIME_SYSTEM":"UTC","REF_FRAME":"TEME","REV_AT_EPOCH":"7351","GP_ID":"212969225","INCLINATION":"53.0555","CLASSIFICATION_TYPE":"U","MEAN_MOTION":"15.06397059","EPOCH":"2022-09-18T19:44:18.040992","FILE":"3577464","SEMIMAJOR_AXIS":"6925.358","COUNTRY_CODE":"US","ECCENTRICITY":"0.00013430","OBJECT_ID":"2021-044F","SITE":"AFETR","RA_OF_ASC_NODE":"53.3004","MEAN_MOTION_DOT":"0.00001076","NORAD_CAT_ID":"48643","MEAN_ANOMALY":"276.9507","RCS_SIZE":"LARGE","OBJECT_TYPE":"PAYLOAD","TLE_LINE2":"2 48643  53.0555  53.3004 0001343  83.1635 276.9507 15.06397059 73519","LAUNCH_DATE":"2021-05-26","EPHEMERIS_TYPE":"0","ARG_OF_PERICENTER":"83.1635","DECAY_DATE":null,"PERIAPSIS":"546.292","MEAN_ELEMENT_THEORY":"SGP4","TLE_LINE1":"1 48643U 21044F   22261.82243103  .00001076  00000-0  91117-4 0  9999"},{"CENTER_NAME":"EARTH","BSTAR":"0.00024601000000","MEAN_MOTION_DDOT":"0.0000000000000","APOAPSIS":"548.155","TIME_SYSTEM":"UTC","PERIOD":"95.592","ELEMENT_SET_NO":"999","OBJECT_NAME":"STARLINK-2695","GP_ID":"212968919","INCLINATION":"53.0549","REF_FRAME":"TEME","REV_AT_EPOCH":"7350","CLASSIFICATION_TYPE":"U","MEAN_MOTION":"15.06403836","EPOCH":"2022-09-19T03:38:03.446592","COUNTRY_CODE":"US","FILE":"3577469","SEMIMAJOR_AXIS":"6925.337","ECCENTRICITY":"0.00013760","RA_OF_ASC_NODE":"51.8263","SITE":"AFETR","OBJECT_ID":"2021-044G","MEAN_MOTION_DOT":"0.00003385","NORAD_CAT_ID":"48644","RCS_SIZE":"LARGE","MEAN_ANOMALY":"280.4037","TLE_LINE2":"2 48644  53.0549  51.8263 0001376  79.7107 280.4037 15.06403836 73502","LAUNCH_DATE":"2021-05-26","OBJECT_TYPE":"PAYLOAD","EPHEMERIS_TYPE":"0","DECAY_DATE":null,"PERIAPSIS":"546.249","ARG_OF_PERICENTER":"79.7107","MEAN_ELEMENT_THEORY":"SGP4","TLE_LINE1":"1 48644U 21044G   22262.15142878  .00003385  00000-0  24601-3 0  9992"},{"MEAN_ELEMENT_THEORY":"SGP4","TLE_LINE1":"1 48645U 21044H   22261.81600488  .00004232  00000-0  30275-3 0  9997","EPHEMERIS_TYPE":"0","ARG_OF_PERICENTER":"73.8982","DECAY_DATE":null,"PERIAPSIS":"546.256","MEAN_ANOMALY":"286.2155","RCS_SIZE":"LARGE","OBJECT_TYPE":"PAYLOAD","TLE_LINE2":"2 48645  53.0542  53.3420 0001342  73.8982 286.2155 15.06409336 73514","LAUNCH_DATE":"2021-05-26","MEAN_MOTION_DOT":"0.00004232","NORAD_CAT_ID":"48645","ECCENTRICITY":"0.00013420","SITE":"AFETR","OBJECT_ID":"2021-044H","RA_OF_ASC_NODE":"53.3420","EPOCH":"2022-09-18T19:35:02.821632","FILE":"3577465","SEMIMAJOR_AXIS":"6925.320","COUNTRY_CODE":"US","REF_FRAME":"TEME","REV_AT_EPOCH":"7351","GP_ID":"212968931","INCLINATION":"53.0542","MEAN_MOTION":"15.06409336","CLASSIFICATION_TYPE":"U","MEAN_MOTION_DDOT":"0.0000000000000","CENTER_NAME":"EARTH","BSTAR":"0.00030275000000","OBJECT_NAME":"STARLINK-2733","APOAPSIS":"548.114","TIME_SYSTEM":"UTC","PERIOD":"95.592","ELEMENT_SET_NO":"999"},{"INCLINATION":"53.0563","GP_ID":"212963570","REV_AT_EPOCH":"7261","REF_FRAME":"TEME","MEAN_MOTION":"15.06399716","CLASSIFICATION_TYPE":"U","BSTAR":"0.00020618000000","CENTER_NAME":"EARTH","MEAN_MOTION_DDOT":"0.0000000000000","TIME_SYSTEM":"UTC","APOAPSIS":"548.147","PERIOD":"95.592","ELEMENT_SET_NO":"999","OBJECT_NAME":"STARLINK-2732","ECCENTRICITY":"0.00013470","OBJECT_ID":"2021-044J","SITE":"AFETR","RA_OF_ASC_NODE":"53.3442","EPOCH":"2022-09-18T19:29:44.545632","COUNTRY_CODE":"US","SEMIMAJOR_AXIS":"6925.349","FILE":"3577422","RCS_SIZE":"LARGE","MEAN_ANOMALY":"267.9620","LAUNCH_DATE":"2021-05-26","TLE_LINE2":"2 48646  53.0563  53.3442 0001347  92.1523 267.9620 15.06399716 72615","OBJECT_TYPE":"PAYLOAD","MEAN_MOTION_DOT":"0.00002791","NORAD_CAT_ID":"48646","MEAN_ELEMENT_THEORY":"SGP4","TLE_LINE1":"1 48646U 21044J   22261.81232113  .00002791  00000-0  20618-3 0  9992","EPHEMERIS_TYPE":"0","PERIAPSIS":"546.282","DECAY_DATE":null,"ARG_OF_PERICENTER":"92.1523"},{"MEAN_MOTION":"15.06397331","CLASSIFICATION_TYPE":"U","REF_FRAME":"TEME","REV_AT_EPOCH":"7351","GP_ID":"212937906","INCLINATION":"53.0556","OBJECT_NAME":"STARLINK-2691","PERIOD":"95.592","APOAPSIS":"547.950","TIME_SYSTEM":"UTC","ELEMENT_SET_NO":"999","MEAN_MOTION_DDOT":"0.0000000000000","CENTER_NAME":"EARTH","BSTAR":"0.00018387000000","RA_OF_ASC_NODE":"53.3646","SITE":"AFETR","OBJECT_ID":"2021-044K","ECCENTRICITY":"0.00010510","FILE":"3577210","SEMIMAJOR_AXIS":"6925.357","COUNTRY_CODE":"US","EPOCH":"2022-09-18T19:24:27.054144","OBJECT_TYPE":"PAYLOAD","TLE_LINE2":"2 48647  53.0556  53.3646 0001051  88.1392 271.9717 15.06397331 73518","LAUNCH_DATE":"2021-05-26","MEAN_ANOMALY":"271.9717","RCS_SIZE":"LARGE","NORAD_CAT_ID":"48647","MEAN_MOTION_DOT":"0.00002458","TLE_LINE1":"1 48647U 21044K   22261.80864646  .00002458  00000-0  18387-3 0  9994","MEAN_ELEMENT_THEORY":"SGP4","ARG_OF_PERICENTER":"88.1392","DECAY_DATE":null,"PERIAPSIS":"546.494","EPHEMERIS_TYPE":"0"},{"MEAN_MOTION_DOT":"0.00000637","NORAD_CAT_ID":"48648","MEAN_ANOMALY":"279.6822","RCS_SIZE":"LARGE","OBJECT_TYPE":"PAYLOAD","TLE_LINE2":"2 48648  53.0559  53.4587 0001583  80.4346 279.6822 15.06398051 72613","LAUNCH_DATE":"2021-05-26","EPHEMERIS_TYPE":"0","ARG_OF_PERICENTER":"80.4346","DECAY_DATE":null,"PERIAPSIS":"546.123","MEAN_ELEMENT_THEORY":"SGP4","TLE_LINE1":"1 48648U 21044L   22261.82340156  .00000637  00000-0  61635-4 0  9994","MEAN_MOTION_DDOT":"0.0000000000000","CENTER_NAME":"EARTH","BSTAR":"0.00006163500000","OBJECT_NAME":"STARLINK-2521","ELEMENT_SET_NO":"999","APOAPSIS":"548.316","PERIOD":"95.592","TIME_SYSTEM":"UTC","REF_FRAME":"TEME","REV_AT_EPOCH":"7261","GP_ID":"212965064","INCLINATION":"53.0559","MEAN_MOTION":"15.06398051","CLASSIFICATION_TYPE":"U","EPOCH":"2022-09-18T19:45:41.894784","FILE":"3577422","SEMIMAJOR_AXIS":"6925.355","COUNTRY_CODE":"US","ECCENTRICITY":"0.00015830","OBJECT_ID":"2021-044L","SITE":"AFETR","RA_OF_ASC_NODE":"53.4587"},{"MEAN_ELEMENT_THEORY":"SGP4","TLE_LINE1":"1 48649U 21044M   22261.80494990  .00010108  00000-0  69636-3 0  9991","EPHEMERIS_TYPE":"0","DECAY_DATE":null,"PERIAPSIS":"546.174","ARG_OF_PERICENTER":"67.6880","RCS_SIZE":"LARGE","MEAN_ANOMALY":"292.4265","TLE_LINE2":"2 48649  53.0557  53.3804 0001468  67.6880 292.4265 15.06407629 72600","LAUNCH_DATE":"2021-05-26","OBJECT_TYPE":"PAYLOAD","MEAN_MOTION_DOT":"0.00010108","NORAD_CAT_ID":"48649","ECCENTRICITY":"0.00014680","RA_OF_ASC_NODE":"53.3804","SITE":"AFETR","OBJECT_ID":"2021-044M","EPOCH":"2022-09-18T19:19:07.671360","COUNTRY_CODE":"US","FILE":"3577422","SEMIMAJOR_AXIS":"6925.325","GP_ID":"212965317","INCLINATION":"53.0557","REF_FRAME":"TEME","REV_AT_EPOCH":"7260","CLASSIFICATION_TYPE":"U","MEAN_MOTION":"15.06407629","CENTER_NAME":"EARTH","BSTAR":"0.00069636000000","MEAN_MOTION_DDOT":"0.0000000000000","APOAPSIS":"548.207","PERIOD":"95.592","TIME_SYSTEM":"UTC","ELEMENT_SET_NO":"999","OBJECT_NAME":"STARLINK-2673"},{"GP_ID":"212937987","INCLINATION":"53.0560","REF_FRAME":"TEME","REV_AT_EPOCH":"7344","CLASSIFICATION_TYPE":"U","MEAN_MOTION":"15.06402235","CENTER_NAME":"EARTH","BSTAR":"0.00015403000000","MEAN_MOTION_DDOT":"0.0000000000000","PERIOD":"95.592","APOAPSIS":"548.108","ELEMENT_SET_NO":"999","TIME_SYSTEM":"UTC","OBJECT_NAME":"STARLINK-2672","ECCENTRICITY":"0.00013010","OBJECT_ID":"2021-044N","SITE":"AFETR","RA_OF_ASC_NODE":"53.4033","EPOCH":"2022-09-18T19:13:48.910656","COUNTRY_CODE":"US","FILE":"3577221","SEMIMAJOR_AXIS":"6925.342","RCS_SIZE":"LARGE","MEAN_ANOMALY":"268.2015","TLE_LINE2":"2 48650  53.0560  53.4033 0001301  91.9123 268.2015 15.06402235 73442","LAUNCH_DATE":"2021-05-26","OBJECT_TYPE":"PAYLOAD","MEAN_MOTION_DOT":"0.00002014","NORAD_CAT_ID":"48650","MEAN_ELEMENT_THEORY":"SGP4","TLE_LINE1":"1 48650U 21044N   22261.80126054  .00002014  00000-0  15403-3 0  9996","EPHEMERIS_TYPE":"0","DECAY_DATE":null,"PERIAPSIS":"546.306","ARG_OF_PERICENTER":"91.9123"}];
